{
  "type": "FeatureCollection",
  "features": [
    {
      "type": "Feature",
      "properties": {
        "norad_id": 40069,
        "name": "METEOR-M 2",
        "group": "weather",
        "lat": -46.06485433599615,
        "lon": -35.49094532008934,
        "alt_km": 826.4298999449938,
        "timestamp": "2025-12-03T15:48:02.748225+00:00",
        "meta_object_name": "METEOR-M 2",
        "meta_object_id": "2014-037A",
        "meta_epoch": "2025-12-03T07:34:22.553184",
        "meta_mean_motion": 14.21380608,
        "meta_eccentricity": 0.00047009,
        "meta_inclination": 98.4893,
        "meta_ra_of_asc_node": 315.2619,
        "meta_arg_of_pericenter": 241.2646,
        "meta_mean_anomaly": 118.806,
        "meta_ephemeris_type": 0,
        "meta_classification_type": "U",
        "meta_norad_cat_id": 40069,
        "meta_element_set_no": 999,
        "meta_rev_at_epoch": 59149,
        "meta_bstar": 0.00012934922,
        "meta_mean_motion_dot": 2.4e-06,
        "meta_mean_motion_ddot": 0,
        "tle_line1": "1 40069U 14037A   25337.31553881  .00000240  00000+0  12935-3 0  9996",
        "tle_line2": "2 40069  98.4893 315.2619 0004700 241.2646 118.8060 14.21380608591490"
      },
      "geometry": {
        "type": "Point",
        "coordinates": [
          -35.49094532008934,
          -46.06485433599615
        ]
      }
    },
    {
      "type": "Feature",
      "properties": {
        "norad_id": 40267,
        "name": "HIMAWARI-8",
        "group": "weather",
        "lat": 0.013067354329869966,
        "lon": 90.41509169559909,
        "alt_km": 35791.64185050433,
        "timestamp": "2025-12-03T15:48:02.748236+00:00",
        "meta_object_name": "HIMAWARI-8",
        "meta_object_id": "2014-060A",
        "meta_epoch": "2025-12-03T07:34:33.739392",
        "meta_mean_motion": 1.00270744,
        "meta_eccentricity": 0.00012769,
        "meta_inclination": 0.0456,
        "meta_ra_of_asc_node": 139.4951,
        "meta_arg_of_pericenter": 145.0634,
        "meta_mean_anomaly": 42.1705,
        "meta_ephemeris_type": 0,
        "meta_classification_type": "U",
        "meta_norad_cat_id": 40267,
        "meta_element_set_no": 999,
        "meta_rev_at_epoch": 4079,
        "meta_bstar": 0,
        "meta_mean_motion_dot": -2.56e-06,
        "meta_mean_motion_ddot": 0,
        "tle_line1": "1 40267U 14060A   25337.31566828 -.00000256  00000+0  00000+0 0  9991",
        "tle_line2": "2 40267   0.0456 139.4951 0001276 145.0634  42.1705  1.00270744 40791"
      },
      "geometry": {
        "type": "Point",
        "coordinates": [
          90.41509169559909,
          0.013067354329869966
        ]
      }
    },
    {
      "type": "Feature",
      "properties": {
        "norad_id": 40367,
        "name": "FENGYUN 2G",
        "group": "weather",
        "lat": -2.2043843785112047,
        "lon": 49.56244544674109,
        "alt_km": 35797.7168107368,
        "timestamp": "2025-12-03T15:48:02.748247+00:00",
        "meta_object_name": "FENGYUN 2G",
        "meta_object_id": "2014-090A",
        "meta_epoch": "2025-12-02T19:23:41.667360",
        "meta_mean_motion": 1.00267744,
        "meta_eccentricity": 0.00030671,
        "meta_inclination": 5.141,
        "meta_ra_of_asc_node": 75.2124,
        "meta_arg_of_pericenter": 193.3464,
        "meta_mean_anomaly": 193.9973,
        "meta_ephemeris_type": 0,
        "meta_classification_type": "U",
        "meta_norad_cat_id": 40367,
        "meta_element_set_no": 999,
        "meta_rev_at_epoch": 4003,
        "meta_bstar": 0,
        "meta_mean_motion_dot": -2.84e-06,
        "meta_mean_motion_ddot": 0,
        "tle_line1": "1 40367U 14090A   25336.80812115 -.00000284  00000+0  00000+0 0  9992",
        "tle_line2": "2 40367   5.1410  75.2124 0003067 193.3464 193.9973  1.00267744 40039"
      },
      "geometry": {
        "type": "Point",
        "coordinates": [
          49.56244544674109,
          -2.2043843785112047
        ]
      }
    },
    {
      "type": "Feature",
      "properties": {
        "norad_id": 40732,
        "name": "METEOSAT-11 (MSG-4)",
        "group": "weather",
        "lat": -2.502717832905565,
        "lon": -40.805299712697405,
        "alt_km": 35784.58453493581,
        "timestamp": "2025-12-03T15:48:02.748257+00:00",
        "meta_object_name": "METEOSAT-11 (MSG-4)",
        "meta_object_id": "2015-034A",
        "meta_epoch": "2025-12-03T06:57:10.948320",
        "meta_mean_motion": 1.00277761,
        "meta_eccentricity": 2.416e-05,
        "meta_inclination": 2.7119,
        "meta_ra_of_asc_node": 72.0251,
        "meta_arg_of_pericenter": 163.8795,
        "meta_mean_anomaly": 310.2425,
        "meta_ephemeris_type": 0,
        "meta_classification_type": "U",
        "meta_norad_cat_id": 40732,
        "meta_element_set_no": 999,
        "meta_rev_at_epoch": 525,
        "meta_bstar": 0,
        "meta_mean_motion_dot": 8.2e-07,
        "meta_mean_motion_ddot": 0,
        "tle_line1": "1 40732U 15034A   25337.28971005  .00000082  00000+0  00000+0 0  9999",
        "tle_line2": "2 40732   2.7119  72.0251 0000241 163.8795 310.2425  1.00277761  5251"
      },
      "geometry": {
        "type": "Point",
        "coordinates": [
          -40.805299712697405,
          -2.502717832905565
        ]
      }
    },
    {
      "type": "Feature",
      "properties": {
        "norad_id": 41105,
        "name": "ELEKTRO-L 2",
        "group": "weather",
        "lat": -4.184845662409881,
        "lon": -64.92911969274624,
        "alt_km": 35771.90582202005,
        "timestamp": "2025-12-03T15:48:02.748268+00:00",
        "meta_object_name": "ELEKTRO-L 2",
        "meta_object_id": "2015-074A",
        "meta_epoch": "2025-12-03T01:42:07.255584",
        "meta_mean_motion": 1.00269824,
        "meta_eccentricity": 0.00039939,
        "meta_inclination": 6.1994,
        "meta_ra_of_asc_node": 72.9411,
        "meta_arg_of_pericenter": 197.267,
        "meta_mean_anomaly": 172.9677,
        "meta_ephemeris_type": 0,
        "meta_classification_type": "U",
        "meta_norad_cat_id": 41105,
        "meta_element_set_no": 999,
        "meta_rev_at_epoch": 3654,
        "meta_bstar": 0,
        "meta_mean_motion_dot": -1.01e-06,
        "meta_mean_motion_ddot": 0,
        "tle_line1": "1 41105U 15074A   25337.07091731 -.00000101  00000+0  00000+0 0  9997",
        "tle_line2": "2 41105   6.1994  72.9411 0003993 197.2670 172.9677  1.00269824 36541"
      },
      "geometry": {
        "type": "Point",
        "coordinates": [
          -64.92911969274624,
          -4.184845662409881
        ]
      }
    },
    {
      "type": "Feature",
      "properties": {
        "norad_id": 41752,
        "name": "INSAT-3DR",
        "group": "weather",
        "lat": -0.02919679951726521,
        "lon": 23.911097732971534,
        "alt_km": 35812.54479435736,
        "timestamp": "2025-12-03T15:48:02.748279+00:00",
        "meta_object_name": "INSAT-3DR",
        "meta_object_id": "2016-054A",
        "meta_epoch": "2025-12-03T03:50:06.372672",
        "meta_mean_motion": 1.00269574,
        "meta_eccentricity": 0.00144494,
        "meta_inclination": 0.067,
        "meta_ra_of_asc_node": 89.2297,
        "meta_arg_of_pericenter": 179.798,
        "meta_mean_anomaly": 294.785,
        "meta_ephemeris_type": 0,
        "meta_classification_type": "U",
        "meta_norad_cat_id": 41752,
        "meta_element_set_no": 999,
        "meta_rev_at_epoch": 3385,
        "meta_bstar": 0,
        "meta_mean_motion_dot": -5.8e-07,
        "meta_mean_motion_ddot": 0,
        "tle_line1": "1 41752U 16054A   25337.15979598 -.00000058  00000+0  00000+0 0  9990",
        "tle_line2": "2 41752   0.0670  89.2297 0014449 179.7980 294.7850  1.00269574 33852"
      },
      "geometry": {
        "type": "Point",
        "coordinates": [
          23.911097732971534,
          -0.02919679951726521
        ]
      }
    },
    {
      "type": "Feature",
      "properties": {
        "norad_id": 41836,
        "name": "HIMAWARI-9",
        "group": "weather",
        "lat": 0.03710586011580489,
        "lon": 90.4920802850124,
        "alt_km": 35794.79861971709,
        "timestamp": "2025-12-03T15:48:02.748289+00:00",
        "meta_object_name": "HIMAWARI-9",
        "meta_object_id": "2016-064A",
        "meta_epoch": "2025-12-02T23:00:58.348224",
        "meta_mean_motion": 1.0027266,
        "meta_eccentricity": 0.00024178,
        "meta_inclination": 0.0194,
        "meta_ra_of_asc_node": 335.8786,
        "meta_arg_of_pericenter": 323.9867,
        "meta_mean_anomaly": 258.1785,
        "meta_ephemeris_type": 0,
        "meta_classification_type": "U",
        "meta_norad_cat_id": 41836,
        "meta_element_set_no": 999,
        "meta_rev_at_epoch": 3324,
        "meta_bstar": 0,
        "meta_mean_motion_dot": 0,
        "meta_mean_motion_ddot": 0,
        "tle_line1": "1 41836U 16064A   25336.95900866  .00000000  00000+0  00000+0 0  9999",
        "tle_line2": "2 41836   0.0194 335.8786 0002417 323.9867 258.1785  1.00272660 33242"
      },
      "geometry": {
        "type": "Point",
        "coordinates": [
          90.4920802850124,
          0.03710586011580489
        ]
      }
    }
  ]
}